GPS BIIR-2  (PRN 13)    
1 24876U 97035A   16087.33751789  .00000014  00000-0  00000+0 0  9990
2 24876  55.6864 244.7185 0043756 115.1366 245.2811  2.00562771136869
GPS BIIR-3  (PRN 11)    
1 25933U 99055A   16087.54341574  .00000003  00000-0  00000+0 0  9997
2 25933  51.3420  97.2476 0160023  86.4561 347.9459  2.00564787120683
GPS BIIR-4  (PRN 20)    
1 26360U 00025A   16087.40640904  .00000003  00000-0  00000+0 0  9995
2 26360  53.0703 173.5236 0045164  76.7421   1.1298  2.00558637116376
GPS BIIR-5  (PRN 28)    
1 26407U 00040A   16087.32105984 -.00000074  00000-0  00000+0 0  9998
2 26407  56.6983   2.5609 0200740 267.3194  26.6837  2.00569800115059
GPS BIIR-6  (PRN 14)    
1 26605U 00071A   16087.28519616  .00000013  00000-0  00000+0 0  9990
2 26605  55.2560 242.6206 0086389 248.5910 312.4263  2.00555608112645
GPS BIIR-7  (PRN 18)    
1 26690U 01004A   16087.54691133  .00000003  00000-0  00000+0 0  9994
2 26690  52.9985 176.4918 0171100 251.2980 235.0806  2.00563342111053
GPS BIIR-8  (PRN 16)    
1 27663U 03005A   16087.53208601 -.00000073  00000-0  00000+0 0  9999
2 27663  56.7734   2.2653 0086182  18.5660 190.1574  2.00557677 96424
GPS BIIR-9  (PRN 21)    
1 27704U 03010A   16087.47103272  .00000015  00000-0  00000+0 0  9997
2 27704  53.6264 116.7818 0235113 256.3638 230.1995  2.00566586 95212
GPS BIIR-10 (PRN 22)    
1 28129U 03058A   16087.00984272  .00000003  00000-0  00000+0 0  9994
2 28129  52.8762 176.5567 0080098 245.8642 113.3418  2.00401118 89912
GPS BIIR-11 (PRN 19)    
1 28190U 04009A   16087.32655789 -.00000020  00000-0  00000+0 0  9992
2 28190  55.7429  63.6493 0106023  40.9170 167.3417  2.00571479 88086
GPS BIIR-12 (PRN 23)    
1 28361U 04023A   16087.10308091  .00000009  00000-0  00000+0 0  9991
2 28361  54.2253 238.1981 0107712 212.0212 110.6062  2.00559608 86165
GPS BIIR-13 (PRN 02)    
1 28474U 04045A   16087.32555654  .00000016  00000-0  00000+0 0  9991
2 28474  54.0170 116.0767 0157699 237.6952 248.6818  2.00554801 83534
GPS BIIRM-1 (PRN 17)    
1 28874U 05038A   16087.20768164 -.00000024  00000-0  00000+0 0  9997
2 28874  55.9096  60.8500 0112236 249.5034 260.6188  2.00565343 76930
GPS BIIRM-2 (PRN 31)    
1 29486U 06042A   16087.50959326 -.00000023  00000-0  00000+0 0  9997
2 29486  55.6872 300.1296 0083618 335.1046 313.3575  2.00558755 69653
GPS BIIRM-3 (PRN 12)    
1 29601U 06052A   16086.55468956 -.00000076  00000-0  00000-0 0  9994
2 29601  56.7438   1.2281 0058683  38.2896 322.1526  2.00553930 68500
GPS BIIRM-4 (PRN 15)    
1 32260U 07047A   16087.37581745  .00000009  00000-0  00000+0 0  9991
2 32260  53.3540 234.9290 0079997  26.0619 334.2990  2.00576040 61954
GPS BIIRM-5 (PRN 29)    
1 32384U 07062A   16087.44693942 -.00000021  00000-0  00000+0 0  9991
2 32384  55.9642  61.3942 0011848 323.7892 226.5087  2.00573127 60681
GPS BIIRM-6 (PRN 07)    
1 32711U 08012A   16086.78480698 -.00000027  00000-0  00000+0 0  9995
2 32711  55.4108 299.6385 0092748 207.5130 152.0234  2.00564999 58867
GPS BIIRM-7 (PRN 04)    
1 34661U 09014A   16087.05003416 -.00000075  00000-0  00000+0 0  9997
2 34661  56.3453 359.5573 0081438  48.4896 210.0299  2.00571405 51393
GPS BIIRM-8 (PRN 05)    
1 35752U 09043A   16087.38163058  .00000005  00000-0  00000+0 0  9998
2 35752  54.2225 177.6309 0044718  24.2303  74.7399  2.00553552 48452
GPS BIIF-1  (PRN 25)    
1 36585U 10022A   16087.36984902 -.00000075  00000-0  00000+0 0  9997
2 36585  56.0718 358.3208 0052837  40.0471 159.9057  2.00551914 42690
GPS BIIF-2  (PRN 01)    
1 37753U 11036A   16087.45786918  .00000019  00000-0  00000+0 0  9995
2 37753  55.2345 118.6037 0051092  23.4905 323.2440  2.00566380 34383
GPS BIIF-3  (PRN 24)    
1 38833U 12053A   16087.46444295 -.00000022  00000-0  00000+0 0  9990
2 38833  54.4420 296.9688 0042936  20.0232 340.1711  2.00568915 25467
GPS BIIF-4  (PRN 27)    
1 39166U 13023A   16087.32386114 -.00000027  00000-0  00000+0 0  9993
2 39166  55.6200  58.0068 0033916   8.8540 351.1915  2.00568219 20975
GPS BIIF-5  (PRN 30)    
1 39533U 14008A   16086.32522608 -.00000034  00000-0  00000-0 0  9993
2 39533  54.5967 302.2369 0018086 177.6563 182.3874  2.00569546 14795
GPS BIIF-6  (PRN 06)    
1 39741U 14026A   16087.10053266  .00000019  00000-0  00000+0 0  9991
2 39741  55.2253 118.1342 0006371 266.4810  93.5128  2.00565021 13623
GPS BIIF-7  (PRN 09)    
1 40105U 14045A   16087.19403059  .00000011  00000-0  00000+0 0  9998
2 40105  54.7437 237.8614 0004550 128.7857 231.2158  2.00570593 12078
GPS BIIF-8  (PRN 03)    
1 40294U 14068A   16087.06492077  .00000006  00000-0  00000+0 0  9990
2 40294  54.9619 178.2787 0003967 236.6905 123.3146  2.00555936 10298
GPS BIIF-9  (PRN 26)    
1 40534U 15013A   16087.20434401 -.00000077  00000-0  00000+0 0  9990
2 40534  55.0404 357.8749 0009896 348.8863  11.1241  2.00557247  7369
GPS BIIF-10  (PRN 08)   
1 40730U 15033A   16086.86270880 -.00000032  00000-0  00000+0 0  9991
2 40730  55.1564  57.8987 0020500 286.4621  73.2987  2.00564567  5110
GPS BIIF-11  (PRN 10)   
1 41019U 15062A   16087.41500510  .00000006  00000-0  00000+0 0  9992
2 41019  54.9774 178.0308 0013529 207.3390 152.6341  2.00562040  2940
GPS BIIF-12  (PRN 32)   
1 41328U 16007A   16086.51001544  .00000005  00000-0  00000+0 0  9997
2 41328  55.0073 237.9504 0002535 271.5074  88.4213  2.00574348   998
